GLOBALSTAR M067 [+]     
1 32263U 07048A   23277.68763399 -.00000084  00000+0  96261-4 0  9997
2 32263  51.9737  54.4206 0001639  97.1417 276.4395 12.40632247732581
GLOBALSTAR M070 [+]     
1 32264U 07048B   23277.58085266 -.00000067  00000+0  20767-3 0  9995
2 32264  51.9740 222.1016 0000532 103.5507  66.8998 12.62279127735167
GLOBALSTAR M066 [+]     
1 32265U 07048C   23277.42524594 -.00000098  00000+0  32198-4 0  9997
2 32265  51.9666  84.6438 0001102  62.0422 314.0743 12.62265454737417
GLOBALSTAR M068 [-]     
1 32266U 07048D   23277.75735235 -.00000076  00000+0  15479-3 0  9998
2 32266  51.9906  36.4860 0000943 160.6823 346.3793 12.62767163739331
GLOBALSTAR M079 [+]     
1 37188U 10054A   23277.60666932 -.00000076  00000+0  15572-3 0  9992
2 37188  52.0027 231.9775 0000645  52.0904 118.6405 12.62268323597959
GLOBALSTAR M074 [+]     
1 37189U 10054B   23277.63299272 -.00000083  00000+0  11594-3 0  9993
2 37189  52.0003 231.3159 0000544  70.1128 100.5631 12.62270215598631
GLOBALSTAR M076 [+]     
1 37190U 10054C   23277.25674375 -.00000081  00000+0  12893-3 0  9995
2 37190  52.0018 232.5755 0001085  69.8315  70.4811 12.62261641598232
GLOBALSTAR M077 [+]     
1 37191U 10054D   23277.48818130 -.00000070  00000+0  18760-3 0  9997
2 37191  52.0065 188.5505 0000701  76.0401  95.0917 12.62264324598633
